[{"OBJECT_NAME":"SUPERBIRD-C2","OBJECT_ID":"2008-038A","EPOCH":"2026-03-02T23:19:09.975936","MEAN_MOTION":1.00270736,"ECCENTRICITY":9.73e-5,"INCLINATION":2.0873,"RA_OF_ASC_NODE":82.6332,"ARG_OF_PERICENTER":7.5945,"MEAN_ANOMALY":196.3202,"EPHEMERIS_TYPE":0,"CLASSIFICATION_TYPE":"U","NORAD_CAT_ID":33274,"ELEMENT_SET_NO":999,"REV_AT_EPOCH":10466,"BSTAR":0,"MEAN_MOTION_DOT":-3.22e-6,"MEAN_MOTION_DDOT":0},{"OBJECT_NAME":"INMARSAT 4-F3","OBJECT_ID":"2008-039A","EPOCH":"2026-03-03T01:37:49.183104","MEAN_MOTION":1.00271678,"ECCENTRICITY":0.0002743,"INCLINATION":4.2022,"RA_OF_ASC_NODE":31.1855,"ARG_OF_PERICENTER":318.5277,"MEAN_ANOMALY":97.5765,"EPHEMERIS_TYPE":0,"CLASSIFICATION_TYPE":"U","NORAD_CAT_ID":33278,"ELEMENT_SET_NO":999,"REV_AT_EPOCH":4548,"BSTAR":0,"MEAN_MOTION_DOT":-1.53e-6,"MEAN_MOTION_DDOT":0},{"OBJECT_NAME":"BREEZE-M R/B","OBJECT_ID":"2008-039C","EPOCH":"2026-03-02T16:57:58.845312","MEAN_MOTION":2.01423575,"ECCENTRICITY":0.596172,"INCLINATION":23.0552,"RA_OF_ASC_NODE":21.3051,"ARG_OF_PERICENTER":323.6442,"MEAN_ANOMALY":7.6911,"EPHEMERIS_TYPE":0,"CLASSIFICATION_TYPE":"U","NORAD_CAT_ID":33280,"ELEMENT_SET_NO":999,"REV_AT_EPOCH":12898,"BSTAR":0,"MEAN_MOTION_DOT":1.18e-6,"MEAN_MOTION_DDOT":0},{"OBJECT_NAME":"NIMIQ 4","OBJECT_ID":"2008-044A","EPOCH":"2026-03-03T03:25:38.777088","MEAN_MOTION":1.00270593,"ECCENTRICITY":0.0002326,"INCLINATION":0.027,"RA_OF_ASC_NODE":102.7452,"ARG_OF_PERICENTER":252.1131,"MEAN_ANOMALY":135.4465,"EPHEMERIS_TYPE":0,"CLASSIFICATION_TYPE":"U","NORAD_CAT_ID":33373,"ELEMENT_SET_NO":999,"REV_AT_EPOCH":6392,"BSTAR":0,"MEAN_MOTION_DOT":-2.36e-6,"MEAN_MOTION_DDOT":0},{"OBJECT_NAME":"BREEZE-M R/B","OBJECT_ID":"2008-044C","EPOCH":"2026-03-01T23:55:50.149344","MEAN_MOTION":2.03674666,"ECCENTRICITY":0.5984536,"INCLINATION":12.8714,"RA_OF_ASC_NODE":329.2117,"ARG_OF_PERICENTER":286.6861,"MEAN_ANOMALY":18.6133,"EPHEMERIS_TYPE":0,"CLASSIFICATION_TYPE":"U","NORAD_CAT_ID":33375,"ELEMENT_SET_NO":999,"REV_AT_EPOCH":12983,"BSTAR":0,"MEAN_MOTION_DOT":3.22e-6,"MEAN_MOTION_DDOT":0},{"OBJECT_NAME":"GALAXY 19 (G-19)","OBJECT_ID":"2008-045A","EPOCH":"2026-03-03T03:41:38.902272","MEAN_MOTION":1.00271869,"ECCENTRICITY":0.000311,"INCLINATION":0.0526,"RA_OF_ASC_NODE":266.4217,"ARG_OF_PERICENTER":87.2398,"MEAN_ANOMALY":125.6496,"EPHEMERIS_TYPE":0,"CLASSIFICATION_TYPE":"U","NORAD_CAT_ID":33376,"ELEMENT_SET_NO":999,"REV_AT_EPOCH":6384,"BSTAR":0,"MEAN_MOTION_DOT":-1.55e-6,"MEAN_MOTION_DDOT":0},{"OBJECT_NAME":"VENESAT-1","OBJECT_ID":"2008-055A","EPOCH":"2026-03-02T20:53:35.962368","MEAN_MOTION":0.99274262,"ECCENTRICITY":0.0065721,"INCLINATION":5.4862,"RA_OF_ASC_NODE":74.2919,"ARG_OF_PERICENTER":192.8688,"MEAN_ANOMALY":193.0368,"EPHEMERIS_TYPE":0,"CLASSIFICATION_TYPE":"U","NORAD_CAT_ID":33414,"ELEMENT_SET_NO":999,"REV_AT_EPOCH":6340,"BSTAR":0,"MEAN_MOTION_DOT":-2.32e-6,"MEAN_MOTION_DDOT":0},{"OBJECT_NAME":"ASTRA 1M","OBJECT_ID":"2008-057A","EPOCH":"2026-03-03T01:15:38.681856","MEAN_MOTION":1.00273218,"ECCENTRICITY":6.33e-5,"INCLINATION":0.032,"RA_OF_ASC_NODE":58.5261,"ARG_OF_PERICENTER":12.7946,"MEAN_ANOMALY":127.5897,"EPHEMERIS_TYPE":0,"CLASSIFICATION_TYPE":"U","NORAD_CAT_ID":33436,"ELEMENT_SET_NO":999,"REV_AT_EPOCH":4467,"BSTAR":0,"MEAN_MOTION_DOT":1.04e-6,"MEAN_MOTION_DDOT":0},{"OBJECT_NAME":"BREEZE-M R/B","OBJECT_ID":"2008-057C","EPOCH":"2026-03-01T12:27:39.181536","MEAN_MOTION":2.00029619,"ECCENTRICITY":0.58314653,"INCLINATION":19.7127,"RA_OF_ASC_NODE":145.4563,"ARG_OF_PERICENTER":246.2898,"MEAN_ANOMALY":43.8841,"EPHEMERIS_TYPE":0,"CLASSIFICATION_TYPE":"U","NORAD_CAT_ID":33438,"ELEMENT_SET_NO":999,"REV_AT_EPOCH":12647,"BSTAR":0,"MEAN_MOTION_DOT":-1.88e-6,"MEAN_MOTION_DDOT":0},{"OBJECT_NAME":"FENGYUN 2D DEB","OBJECT_ID":"2006-053D","EPOCH":"2026-02-21T11:52:21.573696","MEAN_MOTION":1.00249809,"ECCENTRICITY":0.0038219,"INCLINATION":11.4549,"RA_OF_ASC_NODE":38.1234,"ARG_OF_PERICENTER":346.7634,"MEAN_ANOMALY":12.0826,"EPHEMERIS_TYPE":0,"CLASSIFICATION_TYPE":"U","NORAD_CAT_ID":33458,"ELEMENT_SET_NO":999,"REV_AT_EPOCH":6421,"BSTAR":0,"MEAN_MOTION_DOT":-2.1e-7,"MEAN_MOTION_DDOT":0},{"OBJECT_NAME":"EUTELSAT HOTBIRD 13C","OBJECT_ID":"2008-065A","EPOCH":"2026-03-03T02:53:38.748768","MEAN_MOTION":1.00269375,"ECCENTRICITY":0.0003836,"INCLINATION":2.6779,"RA_OF_ASC_NODE":80.4635,"ARG_OF_PERICENTER":272.5938,"MEAN_ANOMALY":160.9164,"EPHEMERIS_TYPE":0,"CLASSIFICATION_TYPE":"U","NORAD_CAT_ID":33459,"ELEMENT_SET_NO":999,"REV_AT_EPOCH":4628,"BSTAR":0,"MEAN_MOTION_DOT":-2.97e-6,"MEAN_MOTION_DDOT":0},{"OBJECT_NAME":"DELTA 4H R/B","OBJECT_ID":"2009-001B","EPOCH":"2026-03-02T19:24:46.356768","MEAN_MOTION":0.96059178,"ECCENTRICITY":0.0262785,"INCLINATION":9.4842,"RA_OF_ASC_NODE":35.7294,"ARG_OF_PERICENTER":62.8439,"MEAN_ANOMALY":299.8911,"EPHEMERIS_TYPE":0,"CLASSIFICATION_TYPE":"U","NORAD_CAT_ID":33491,"ELEMENT_SET_NO":999,"REV_AT_EPOCH":2313,"BSTAR":0,"MEAN_MOTION_DOT":-1.99e-6,"MEAN_MOTION_DDOT":0},{"OBJECT_NAME":"TITAN 3C TRANSTAGE DEB","OBJECT_ID":"1968-081L","EPOCH":"2026-03-02T16:14:48.747840","MEAN_MOTION":1.0183695,"ECCENTRICITY":0.00786726,"INCLINATION":1.8113,"RA_OF_ASC_NODE":51.6478,"ARG_OF_PERICENTER":302.9283,"MEAN_ANOMALY":137.2581,"EPHEMERIS_TYPE":0,"CLASSIFICATION_TYPE":"U","NORAD_CAT_ID":33510,"ELEMENT_SET_NO":999,"REV_AT_EPOCH":602,"BSTAR":0,"MEAN_MOTION_DOT":-2.87e-6,"MEAN_MOTION_DDOT":0},{"OBJECT_NAME":"TITAN 3C TRANSTAGE DEB","OBJECT_ID":"1968-081M","EPOCH":"2026-03-03T01:55:38.733024","MEAN_MOTION":1.00778587,"ECCENTRICITY":0.0139964,"INCLINATION":1.5476,"RA_OF_ASC_NODE":32.4048,"ARG_OF_PERICENTER":302.4771,"MEAN_ANOMALY":82.5077,"EPHEMERIS_TYPE":0,"CLASSIFICATION_TYPE":"U","NORAD_CAT_ID":33511,"ELEMENT_SET_NO":999,"REV_AT_EPOCH":6635,"BSTAR":0,"MEAN_MOTION_DOT":-4.5e-7,"MEAN_MOTION_DDOT":0},{"OBJECT_NAME":"TITAN 3C TRANSTAGE DEB","OBJECT_ID":"1968-081N","EPOCH":"2026-03-02T08:04:15.949344","MEAN_MOTION":1.00907082,"ECCENTRICITY":0.02620731,"INCLINATION":1.8286,"RA_OF_ASC_NODE":40.9645,"ARG_OF_PERICENTER":300.423,"MEAN_ANOMALY":57.7268,"EPHEMERIS_TYPE":0,"CLASSIFICATION_TYPE":"U","NORAD_CAT_ID":33512,"ELEMENT_SET_NO":999,"REV_AT_EPOCH":7255,"BSTAR":0,"MEAN_MOTION_DOT":-4.22e-6,"MEAN_MOTION_DDOT":0},{"OBJECT_NAME":"TITAN 3C TRANSTAGE DEB","OBJECT_ID":"1968-081P","EPOCH":"2026-03-03T00:38:32.364672","MEAN_MOTION":1.01397398,"ECCENTRICITY":0.0087188,"INCLINATION":1.8267,"RA_OF_ASC_NODE":47.3441,"ARG_OF_PERICENTER":287.5533,"MEAN_ANOMALY":250.5397,"EPHEMERIS_TYPE":0,"CLASSIFICATION_TYPE":"U","NORAD_CAT_ID":33513,"ELEMENT_SET_NO":999,"REV_AT_EPOCH":4679,"BSTAR":0,"MEAN_MOTION_DOT":-1.46e-6,"MEAN_MOTION_DDOT":0},{"OBJECT_NAME":"GOES 5 AKM","OBJECT_ID":"1981-049D","EPOCH":"2026-03-01T19:29:18.509856","MEAN_MOTION":0.82272542,"ECCENTRICITY":0.17010767,"INCLINATION":16.5605,"RA_OF_ASC_NODE":318.2386,"ARG_OF_PERICENTER":142.0285,"MEAN_ANOMALY":23.8431,"EPHEMERIS_TYPE":0,"CLASSIFICATION_TYPE":"U","NORAD_CAT_ID":33521,"ELEMENT_SET_NO":999,"REV_AT_EPOCH":5771,"BSTAR":0,"MEAN_MOTION_DOT":-2.17e-6,"MEAN_MOTION_DDOT":0}]
