SUPERBIRD-C2            
1 33274U 08038A   26061.97164324 -.00000322  00000+0  00000+0 0  9995
2 33274   2.0873  82.6332 0000973   7.5945 196.3202  1.00270736104660
INMARSAT 4-F3           
1 33278U 08039A   26062.06793036 -.00000153  00000+0  00000+0 0  9991
2 33278   4.2022  31.1855 0002743 318.5277  97.5765  1.00271678 45489
BREEZE-M R/B            
1 33280U 08039C   26061.70693108  .00000118  00000+0  00000+0 0  9993
2 33280  23.0552  21.3051 5961720 323.6442   7.6911  2.01423575128982
NIMIQ 4                 
1 33373U 08044A   26062.14280992 -.00000236  00000+0  00000+0 0  9996
2 33373   0.0270 102.7452 0002326 252.1131 135.4465  1.00270593 63924
BREEZE-M R/B            
1 33375U 08044C   26060.99710821  .00000322  00000+0  00000+0 0  9993
2 33375  12.8714 329.2117 5984536 286.6861  18.6133  2.03674666129833
GALAXY 19 (G-19)        
1 33376U 08045A   26062.15392248 -.00000155  00000+0  00000+0 0  9999
2 33376   0.0526 266.4217 0003110  87.2398 125.6496  1.00271869 63845
VENESAT-1               
1 33414U 08055A   26061.87055512 -.00000232  00000+0  00000+0 0  9997
2 33414   5.4862  74.2919 0065721 192.8688 193.0368  0.99274262 63401
ASTRA 1M                
1 33436U 08057A   26062.05253104  .00000104  00000+0  00000+0 0  9998
2 33436   0.0320  58.5261 0000633  12.7946 127.5897  1.00273218 44678
BREEZE-M R/B            
1 33438U 08057C   26060.51920349 -.00000188  00000+0  00000+0 0  9994
2 33438  19.7127 145.4563 5831465 246.2898  43.8841  2.00029619126476
FENGYUN 2D DEB          
1 33458U 06053D   26052.49469414 -.00000021  00000+0  00000+0 0  9995
2 33458  11.4549  38.1234 0038219 346.7634  12.0826  1.00249809 64211
EUTELSAT HOTBIRD 13C    
1 33459U 08065A   26062.12058737 -.00000297  00000+0  00000+0 0  9999
2 33459   2.6779  80.4635 0003836 272.5938 160.9164  1.00269375 46289
DELTA 4H R/B            
1 33491U 09001B   26061.80886987 -.00000199  00000+0  00000+0 0  9997
2 33491   9.4842  35.7294 0262785  62.8439 299.8911  0.96059178 23134
TITAN 3C TRANSTAGE DEB  
1 33510U 68081L   26061.67695310 -.00000287  00000+0  00000+0 0  9993
2 33510   1.8113  51.6478 0078672 302.9283 137.2581  1.01836950  6024
TITAN 3C TRANSTAGE DEB  
1 33511U 68081M   26062.08030941 -.00000045  00000+0  00000+0 0  9995
2 33511   1.5476  32.4048 0139964 302.4771  82.5077  1.00778587 66357
TITAN 3C TRANSTAGE DEB  
1 33512U 68081N   26061.33629571 -.00000422  00000+0  00000+0 0  9995
2 33512   1.8286  40.9645 0262073 300.4230  57.7268  1.00907082 72552
TITAN 3C TRANSTAGE DEB  
1 33513U 68081P   26062.02676348 -.00000146  00000+0  00000+0 0  9990
2 33513   1.8267  47.3441 0087188 287.5533 250.5397  1.01397398 46797
GOES 5 AKM              
1 33521U 81049D   26060.81201979 -.00000217  00000+0  00000+0 0  9996
2 33521  16.5605 318.2386 1701076 142.0285  23.8431  0.82272542 57717
